{"type": "FeatureCollection", "features": [ {"type": "Feature", "properties": {"norad_id": 35480, "name": "IRIDIUM 33 DEB", "group": "iridium-33-debris", "lat": 0.4342405858200225, "lon": 26.799384360936926, "alt_km": 734.1049411396725, "timestamp": "2025-12-08T10:52:03.333103+00:00", "meta": {"OBJECT_NAME": "IRIDIUM 33 DEB", "OBJECT_ID": "1997-051QA", "EPOCH": "2025-12-01T21:29:27.496896", "MEAN_MOTION": 14.49686619, "ECCENTRICITY": 0.00155495, "INCLINATION": 86.3575, "RA_OF_ASC_NODE": 29.6125, "ARG_OF_PERICENTER": 136.7189, "MEAN_ANOMALY": 223.524, "EPHEMERIS_TYPE": 0, "CLASSIFICATION_TYPE": "U", "NORAD_CAT_ID": 35480, "ELEMENT_SET_NO": 999, "REV_AT_EPOCH": 86874, "BSTAR": 0.000651702, "MEAN_MOTION_DOT": 2.53e-05, "MEAN_MOTION_DDOT": 0}, "tle": {"line1": "1 35480U 97051QA  25335.89545714  .00002530  00000+0  65170-3 0  9994", "line2": "2 35480  86.3575  29.6125 0015549 136.7189 223.5240 14.49686619868745"}}, "geometry": {"type": "Point", "coordinates": [26.799384360936926, 0.4342405858200225]}}, {"type": "Feature", "properties": {"norad_id": 35484, "name": "IRIDIUM 33 DEB", "group": "iridium-33-debris", "lat": 47.27140031698224, "lon": 170.80570673174287, "alt_km": 554.026406840896, "timestamp": "2025-12-08T10:52:03.333119+00:00", "meta": {"OBJECT_NAME": "IRIDIUM 33 DEB", "OBJECT_ID": "1997-051QE", "EPOCH": "2025-12-01T19:32:14.692416", "MEAN_MOTION": 14.97587734, "ECCENTRICITY": 0.00218288, "INCLINATION": 86.3628, "RA_OF_ASC_NODE": 357.8533, "ARG_OF_PERICENTER": 162.6444, "MEAN_ANOMALY": 197.5538, "EPHEMERIS_TYPE": 0, "CLASSIFICATION_TYPE": "U", "NORAD_CAT_ID": 35484, "ELEMENT_SET_NO": 999, "REV_AT_EPOCH": 61852, "BSTAR": 0.0025030806, "MEAN_MOTION_DOT": 0.00029486, "MEAN_MOTION_DDOT": 0}, "tle": {"line1": "1 35484U 97051QE  25335.81405894  .00029486  00000+0  25031-2 0  9994", "line2": "2 35484  86.3628 357.8533 0021828 162.6444 197.5538 14.97587734618526"}}, "geometry": {"type": "Point", "coordinates": [170.80570673174287, 47.27140031698224]}}, {"type": "Feature", "properties": {"norad_id": 35488, "name": "IRIDIUM 33 DEB", "group": "iridium-33-debris", "lat": 56.125380913089685, "lon": 117.35970743616998, "alt_km": 606.7258815880659, "timestamp": "2025-12-08T10:52:03.333135+00:00", "meta": {"OBJECT_NAME": "IRIDIUM 33 DEB", "OBJECT_ID": "1997-051QJ", "EPOCH": "2025-12-07T14:52:48.765504", "MEAN_MOTION": 14.82861874, "ECCENTRICITY": 0.00304076, "INCLINATION": 86.3248, "RA_OF_ASC_NODE": 303.2376, "ARG_OF_PERICENTER": 59.1237, "MEAN_ANOMALY": 301.297, "EPHEMERIS_TYPE": 0, "CLASSIFICATION_TYPE": "U", "NORAD_CAT_ID": 35488, "ELEMENT_SET_NO": 999, "REV_AT_EPOCH": 88190, "BSTAR": 0.002489408, "MEAN_MOTION_DOT": 0.00020383, "MEAN_MOTION_DDOT": 0}, "tle": {"line1": "1 35488U 97051QJ  25341.62000886  .00020383  00000+0  24894-2 0  9999", "line2": "2 35488  86.3248 303.2376 0030407  59.1237 301.2970 14.82861874881903"}}, "geometry": {"type": "Point", "coordinates": [117.35970743616998, 56.125380913089685]}}, {"type": "Feature", "properties": {"norad_id": 35616, "name": "IRIDIUM 33 DEB", "group": "iridium-33-debris", "lat": -58.028072787480646, "lon": -18.141265528188864, "alt_km": 634.7267679076513, "timestamp": "2025-12-08T10:52:03.333151+00:00", "meta": {"OBJECT_NAME": "IRIDIUM 33 DEB", "OBJECT_ID": "1997-051QN", "EPOCH": "2025-12-06T07:15:38.847744", "MEAN_MOTION": 14.81564916, "ECCENTRICITY": 0.00091957, "INCLINATION": 86.3542, "RA_OF_ASC_NODE": 348.7026, "ARG_OF_PERICENTER": 186.8662, "MEAN_ANOMALY": 173.2436, "EPHEMERIS_TYPE": 0, "CLASSIFICATION_TYPE": "U", "NORAD_CAT_ID": 35616, "ELEMENT_SET_NO": 999, "REV_AT_EPOCH": 87479, "BSTAR": 0.0030438731, "MEAN_MOTION_DOT": 0.00023991, "MEAN_MOTION_DDOT": 0}, "tle": {"line1": "1 35616U 97051QN  25340.30253296  .00023991  00000+0  30439-2 0  9991", "line2": "2 35616  86.3542 348.7026 0009195 186.8662 173.2436 14.81564916874798"}}, "geometry": {"type": "Point", "coordinates": [-18.141265528188864, -58.028072787480646]}}, {"type": "Feature", "properties": {"norad_id": 35618, "name": "IRIDIUM 33 DEB", "group": "iridium-33-debris", "lat": 18.38524882521184, "lon": 174.1574428586306, "alt_km": 731.067146787078, "timestamp": "2025-12-08T10:52:03.333168+00:00", "meta": {"OBJECT_NAME": "IRIDIUM 33 DEB", "OBJECT_ID": "1997-051QQ", "EPOCH": "2025-12-05T07:42:53.148672", "MEAN_MOTION": 14.52258119, "ECCENTRICITY": 0.00302089, "INCLINATION": 86.3407, "RA_OF_ASC_NODE": 356.7447, "ARG_OF_PERICENTER": 46.3254, "MEAN_ANOMALY": 314.0448, "EPHEMERIS_TYPE": 0, "CLASSIFICATION_TYPE": "U", "NORAD_CAT_ID": 35618, "ELEMENT_SET_NO": 999, "REV_AT_EPOCH": 65286, "BSTAR": 0.00091388234, "MEAN_MOTION_DOT": 3.753e-05, "MEAN_MOTION_DDOT": 0}, "tle": {"line1": "1 35618U 97051QQ  25339.32144848  .00003753  00000+0  91388-3 0  9990", "line2": "2 35618  86.3407 356.7447 0030208  46.3254 314.0448 14.52258119652865"}}, "geometry": {"type": "Point", "coordinates": [174.1574428586306, 18.38524882521184]}}, {"type": "Feature", "properties": {"norad_id": 35620, "name": "IRIDIUM 33 DEB", "group": "iridium-33-debris", "lat": 6.423501702865606, "lon": -140.33056610365716, "alt_km": 772.4657932590653, "timestamp": "2025-12-08T10:52:03.333184+00:00", "meta": {"OBJECT_NAME": "IRIDIUM 33 DEB", "OBJECT_ID": "1997-051QS", "EPOCH": "2025-12-07T09:47:01.236480", "MEAN_MOTION": 14.37772591, "ECCENTRICITY": 0.0143262, "INCLINATION": 86.3889, "RA_OF_ASC_NODE": 219.7026, "ARG_OF_PERICENTER": 276.5805, "MEAN_ANOMALY": 81.9102, "EPHEMERIS_TYPE": 0, "CLASSIFICATION_TYPE": "U", "NORAD_CAT_ID": 35620, "ELEMENT_SET_NO": 999, "REV_AT_EPOCH": 59889, "BSTAR": 0.0083170941, "MEAN_MOTION_DOT": 0.00028295, "MEAN_MOTION_DDOT": 0}, "tle": {"line1": "1 35620U 97051QS  25341.40765320  .00028295  00000+0  83171-2 0  9997", "line2": "2 35620  86.3889 219.7026 0143262 276.5805  81.9102 14.37772591598894"}}, "geometry": {"type": "Point", "coordinates": [-140.33056610365716, 6.423501702865606]}}, {"type": "Feature", "properties": {"norad_id": 35622, "name": "IRIDIUM 33 DEB", "group": "iridium-33-debris", "lat": 31.419348271603845, "lon": 83.38937251311843, "alt_km": 559.1353853445889, "timestamp": "2025-12-08T10:52:03.333219+00:00", "meta": {"OBJECT_NAME": "IRIDIUM 33 DEB", "OBJECT_ID": "1997-051QU", "EPOCH": "2025-12-07T06:08:10.382208", "MEAN_MOTION": 15.0368423, "ECCENTRICITY": 0.00091825, "INCLINATION": 86.2049, "RA_OF_ASC_NODE": 266.3018, "ARG_OF_PERICENTER": 353.8818, "MEAN_ANOMALY": 157.8722, "EPHEMERIS_TYPE": 0, "CLASSIFICATION_TYPE": "U", "NORAD_CAT_ID": 35622, "ELEMENT_SET_NO": 999, "REV_AT_EPOCH": 87277, "BSTAR": 0.0074565803, "MEAN_MOTION_DOT": 0.00103587, "MEAN_MOTION_DDOT": 0}, "tle": {"line1": "1 35622U 97051QU  25341.25567572  .00103587  00000+0  74566-2 0  9997", "line2": "2 35622  86.2049 266.3018 0009182 353.8818 157.8722 15.03684230872776"}}, "geometry": {"type": "Point", "coordinates": [83.38937251311843, 31.419348271603845]}}, {"type": "Feature", "properties": {"norad_id": 35628, "name": "IRIDIUM 33 DEB", "group": "iridium-33-debris", "lat": -3.9772655174886675, "lon": -168.75780069064612, "alt_km": 680.547909304305, "timestamp": "2025-12-08T10:52:03.333238+00:00", "meta": {"OBJECT_NAME": "IRIDIUM 33 DEB", "OBJECT_ID": "1997-051RA", "EPOCH": "2025-12-04T09:28:36.488064", "MEAN_MOTION": 14.67394134, "ECCENTRICITY": 0.001144, "INCLINATION": 86.3576, "RA_OF_ASC_NODE": 12.797, "ARG_OF_PERICENTER": 12.0998, "MEAN_ANOMALY": 348.0488, "EPHEMERIS_TYPE": 0, "CLASSIFICATION_TYPE": "U", "NORAD_CAT_ID": 35628, "ELEMENT_SET_NO": 999, "REV_AT_EPOCH": 86324, "BSTAR": 0.0032445, "MEAN_MOTION_DOT": 0.00018408, "MEAN_MOTION_DDOT": 0}, "tle": {"line1": "1 35628U 97051RA  25338.39486676  .00018408  00000+0  32445-2 0  9996", "line2": "2 35628  86.3576  12.7970 0011440  12.0998 348.0488 14.67394134863246"}}, "geometry": {"type": "Point", "coordinates": [-168.75780069064612, -3.9772655174886675]}}, {"type": "Feature", "properties": {"norad_id": 35631, "name": "IRIDIUM 33 DEB", "group": "iridium-33-debris", "lat": 30.928405626189704, "lon": 25.00312151525988, "alt_km": 735.0068991932312, "timestamp": "2025-12-08T10:52:03.333257+00:00", "meta": {"OBJECT_NAME": "IRIDIUM 33 DEB", "OBJECT_ID": "1997-051RD", "EPOCH": "2025-12-06T21:23:47.071392", "MEAN_MOTION": 14.47286545, "ECCENTRICITY": 0.00185223, "INCLINATION": 86.3689, "RA_OF_ASC_NODE": 23.4943, "ARG_OF_PERICENTER": 135.5581, "MEAN_ANOMALY": 46.1978, "EPHEMERIS_TYPE": 0, "CLASSIFICATION_TYPE": "U", "NORAD_CAT_ID": 35631, "ELEMENT_SET_NO": 999, "REV_AT_EPOCH": 87112, "BSTAR": 0.00062002851, "MEAN_MOTION_DOT": 2.292e-05, "MEAN_MOTION_DDOT": 0}, "tle": {"line1": "1 35631U 97051RD  25340.89151703  .00002292  00000+0  62003-3 0  9996", "line2": "2 35631  86.3689  23.4943 0018522 135.5581  46.1978 14.47286545871121"}}, "geometry": {"type": "Point", "coordinates": [25.00312151525988, 30.928405626189704]}}, {"type": "Feature", "properties": {"norad_id": 35680, "name": "IRIDIUM 33 DEB", "group": "iridium-33-debris", "lat": 50.94505829407907, "lon": 28.24115791589872, "alt_km": 869.115223199974, "timestamp": "2025-12-08T10:52:03.333270+00:00", "meta": {"OBJECT_NAME": "IRIDIUM 33 DEB", "OBJECT_ID": "1997-051RJ", "EPOCH": "2025-12-07T09:19:47.246592", "MEAN_MOTION": 14.20776466, "ECCENTRICITY": 0.01503971, "INCLINATION": 86.1018, "RA_OF_ASC_NODE": 23.8914, "ARG_OF_PERICENTER": 295.6462, "MEAN_ANOMALY": 74.8204, "EPHEMERIS_TYPE": 0, "CLASSIFICATION_TYPE": "U", "NORAD_CAT_ID": 35680, "ELEMENT_SET_NO": 999, "REV_AT_EPOCH": 60625, "BSTAR": 0.0056071361, "MEAN_MOTION_DOT": 0.00013594, "MEAN_MOTION_DDOT": 0}, "tle": {"line1": "1 35680U 97051RJ  25341.38874128  .00013594  00000+0  56071-2 0  9992", "line2": "2 35680  86.1018  23.8914 0150397 295.6462  74.8204 14.20776466606251"}}, "geometry": {"type": "Point", "coordinates": [28.24115791589872, 50.94505829407907]}}]}